{"type": "FeatureCollection", "features": [ {"type": "Feature", "properties": {"norad_id": 66692, "name": "TRANSPORTER-15 AC", "group": "last-30-days", "lat": 11.089812906177569, "lon": 64.04067961694452, "alt_km": 515.0867714309015, "timestamp": "2025-12-19T20:42:58.812292+00:00", "meta": {"OBJECT_NAME": "TRANSPORTER-15 AC", "OBJECT_ID": "2025-276AC", "EPOCH": "2025-12-18T03:31:00.719904", "MEAN_MOTION": 15.1734807, "ECCENTRICITY": 0.00018859, "INCLINATION": 97.4435, "RA_OF_ASC_NODE": 63.8224, "ARG_OF_PERICENTER": 298.055, "MEAN_ANOMALY": 62.0493, "EPHEMERIS_TYPE": 0, "CLASSIFICATION_TYPE": "U", "NORAD_CAT_ID": 66692, "ELEMENT_SET_NO": 999, "REV_AT_EPOCH": 294, "BSTAR": 0.00028171998, "MEAN_MOTION_DOT": 5.556e-05, "MEAN_MOTION_DDOT": 0}, "tle": {"line1": "1 66692U 25276AC  25352.14653611  .00005556  00000+0  28172-3 0  9998", "line2": "2 66692  97.4435  63.8224 0001885 298.0550  62.0493 15.17348070  2944"}}, "geometry": {"type": "Point", "coordinates": [64.04067961694452, 11.089812906177569]}}, {"type": "Feature", "properties": {"norad_id": 66693, "name": "TRANSPORTER-15 AD", "group": "last-30-days", "lat": 8.759926372721534, "lon": 64.33712143818016, "alt_km": 514.6621315097555, "timestamp": "2025-12-19T20:42:58.812302+00:00", "meta": {"OBJECT_NAME": "TRANSPORTER-15 AD", "OBJECT_ID": "2025-276AD", "EPOCH": "2025-12-18T03:31:52.892544", "MEAN_MOTION": 15.17490576, "ECCENTRICITY": 0.00033777, "INCLINATION": 97.4387, "RA_OF_ASC_NODE": 63.8053, "ARG_OF_PERICENTER": 297.6825, "MEAN_ANOMALY": 62.4066, "EPHEMERIS_TYPE": 0, "CLASSIFICATION_TYPE": "U", "NORAD_CAT_ID": 66693, "ELEMENT_SET_NO": 999, "REV_AT_EPOCH": 294, "BSTAR": 0.00059940628, "MEAN_MOTION_DOT": 0.00011956, "MEAN_MOTION_DDOT": 0}, "tle": {"line1": "1 66693U 25276AD  25352.14713996  .00011956  00000+0  59941-3 0  9991", "line2": "2 66693  97.4387  63.8053 0003377 297.6825  62.4066 15.17490576  2948"}}, "geometry": {"type": "Point", "coordinates": [64.33712143818016, 8.759926372721534]}}, {"type": "Feature", "properties": {"norad_id": 66694, "name": "TRANSPORTER-15 AE", "group": "last-30-days", "lat": 18.7598533149033, "lon": 62.96308235751267, "alt_km": 513.754720912314, "timestamp": "2025-12-19T20:42:58.812312+00:00", "meta": {"OBJECT_NAME": "TRANSPORTER-15 AE", "OBJECT_ID": "2025-276AE", "EPOCH": "2025-12-18T03:29:12.529824", "MEAN_MOTION": 15.17491302, "ECCENTRICITY": 0.00014365, "INCLINATION": 97.4431, "RA_OF_ASC_NODE": 63.8198, "ARG_OF_PERICENTER": 292.0507, "MEAN_ANOMALY": 68.0574, "EPHEMERIS_TYPE": 0, "CLASSIFICATION_TYPE": "U", "NORAD_CAT_ID": 66694, "ELEMENT_SET_NO": 999, "REV_AT_EPOCH": 294, "BSTAR": 0.00035109913, "MEAN_MOTION_DOT": 6.971e-05, "MEAN_MOTION_DDOT": 0}, "tle": {"line1": "1 66694U 25276AE  25352.14528391  .00006971  00000+0  35110-3 0  9998", "line2": "2 66694  97.4431  63.8198 0001436 292.0507  68.0574 15.17491302  2943"}}, "geometry": {"type": "Point", "coordinates": [62.96308235751267, 18.7598533149033]}}, {"type": "Feature", "properties": {"norad_id": 66695, "name": "TRANSPORTER-15 AF", "group": "last-30-days", "lat": 67.8300825645092, "lon": 46.815912664074425, "alt_km": 504.5663066983425, "timestamp": "2025-12-19T20:42:58.812325+00:00", "meta": {"OBJECT_NAME": "TRANSPORTER-15 AF", "OBJECT_ID": "2025-276AF", "EPOCH": "2025-12-19T04:35:41.717184", "MEAN_MOTION": 15.18191517, "ECCENTRICITY": 0.00011228, "INCLINATION": 97.4414, "RA_OF_ASC_NODE": 64.8641, "ARG_OF_PERICENTER": 151.5223, "MEAN_ANOMALY": 208.6073, "EPHEMERIS_TYPE": 0, "CLASSIFICATION_TYPE": "U", "NORAD_CAT_ID": 66695, "ELEMENT_SET_NO": 999, "REV_AT_EPOCH": 310, "BSTAR": 0.00035389261, "MEAN_MOTION_DOT": 7.17e-05, "MEAN_MOTION_DDOT": 0}, "tle": {"line1": "1 66695U 25276AF  25353.19145506  .00007170  00000+0  35389-3 0  9998", "line2": "2 66695  97.4414  64.8641 0001122 151.5223 208.6073 15.18191517  3106"}}, "geometry": {"type": "Point", "coordinates": [46.815912664074425, 67.8300825645092]}}, {"type": "Feature", "properties": {"norad_id": 66696, "name": "TRANSPORTER-15 AG", "group": "last-30-days", "lat": 7.055599937336543, "lon": 64.56786237885845, "alt_km": 515.5901107709733, "timestamp": "2025-12-19T20:42:58.812335+00:00", "meta": {"OBJECT_NAME": "TRANSPORTER-15 AG", "OBJECT_ID": "2025-276AG", "EPOCH": "2025-12-18T03:32:04.926336", "MEAN_MOTION": 15.17343231, "ECCENTRICITY": 0.00025772, "INCLINATION": 97.4402, "RA_OF_ASC_NODE": 63.8094, "ARG_OF_PERICENTER": 293.7336, "MEAN_ANOMALY": 66.3627, "EPHEMERIS_TYPE": 0, "CLASSIFICATION_TYPE": "U", "NORAD_CAT_ID": 66696, "ELEMENT_SET_NO": 999, "REV_AT_EPOCH": 294, "BSTAR": 0.00037667077, "MEAN_MOTION_DOT": 7.452e-05, "MEAN_MOTION_DDOT": 0}, "tle": {"line1": "1 66696U 25276AG  25352.14727924  .00007452  00000+0  37667-3 0  9997", "line2": "2 66696  97.4402  63.8094 0002577 293.7336  66.3627 15.17343231  2940"}}, "geometry": {"type": "Point", "coordinates": [64.56786237885845, 7.055599937336543]}}, {"type": "Feature", "properties": {"norad_id": 66697, "name": "TRANSPORTER-15 AH", "group": "last-30-days", "lat": 62.733072524478544, "lon": 50.83116360546584, "alt_km": 505.4778251297703, "timestamp": "2025-12-19T20:42:58.812345+00:00", "meta": {"OBJECT_NAME": "TRANSPORTER-15 AH", "OBJECT_ID": "2025-276AH", "EPOCH": "2025-12-19T04:37:03.122400", "MEAN_MOTION": 15.18105904, "ECCENTRICITY": 9.536e-05, "INCLINATION": 97.4404, "RA_OF_ASC_NODE": 64.8597, "ARG_OF_PERICENTER": 158.0557, "MEAN_ANOMALY": 202.0718, "EPHEMERIS_TYPE": 0, "CLASSIFICATION_TYPE": "U", "NORAD_CAT_ID": 66697, "ELEMENT_SET_NO": 999, "REV_AT_EPOCH": 310, "BSTAR": 0.00030707657, "MEAN_MOTION_DOT": 6.196e-05, "MEAN_MOTION_DDOT": 0}, "tle": {"line1": "1 66697U 25276AH  25353.19239725  .00006196  00000+0  30708-3 0  9994", "line2": "2 66697  97.4404  64.8597 0000953 158.0557 202.0718 15.18105904  3109"}}, "geometry": {"type": "Point", "coordinates": [50.83116360546584, 62.733072524478544]}}, {"type": "Feature", "properties": {"norad_id": 66698, "name": "TRANSPORTER-15 AJ", "group": "last-30-days", "lat": 3.12931815448166, "lon": 65.08461890741275, "alt_km": 516.5969944989583, "timestamp": "2025-12-19T20:42:58.812355+00:00", "meta": {"OBJECT_NAME": "TRANSPORTER-15 AJ", "OBJECT_ID": "2025-276AJ", "EPOCH": "2025-12-19T03:17:30.937632", "MEAN_MOTION": 15.17284655, "ECCENTRICITY": 0.00027446, "INCLINATION": 97.4404, "RA_OF_ASC_NODE": 64.781, "ARG_OF_PERICENTER": 278.6588, "MEAN_ANOMALY": 81.4335, "EPHEMERIS_TYPE": 0, "CLASSIFICATION_TYPE": "U", "NORAD_CAT_ID": 66698, "ELEMENT_SET_NO": 999, "REV_AT_EPOCH": 309, "BSTAR": 0.0003127492, "MEAN_MOTION_DOT": 6.165e-05, "MEAN_MOTION_DDOT": 0}, "tle": {"line1": "1 66698U 25276AJ  25353.13716363  .00006165  00000+0  31275-3 0  9993", "line2": "2 66698  97.4404  64.7810 0002744 278.6588  81.4335 15.17284655  3092"}}, "geometry": {"type": "Point", "coordinates": [65.08461890741275, 3.12931815448166]}}, {"type": "Feature", "properties": {"norad_id": 66699, "name": "TRANSPORTER-15 AK", "group": "last-30-days", "lat": 3.8108364501503176, "lon": 64.99922633156048, "alt_km": 516.4284913397869, "timestamp": "2025-12-19T20:42:58.812365+00:00", "meta": {"OBJECT_NAME": "TRANSPORTER-15 AK", "OBJECT_ID": "2025-276AK", "EPOCH": "2025-12-18T03:32:53.387232", "MEAN_MOTION": 15.17309221, "ECCENTRICITY": 0.00030714, "INCLINATION": 97.442, "RA_OF_ASC_NODE": 63.8131, "ARG_OF_PERICENTER": 281.0974, "MEAN_ANOMALY": 78.9914, "EPHEMERIS_TYPE": 0, "CLASSIFICATION_TYPE": "U", "NORAD_CAT_ID": 66699, "ELEMENT_SET_NO": 999, "REV_AT_EPOCH": 294, "BSTAR": 0.00038427388, "MEAN_MOTION_DOT": 7.597e-05, "MEAN_MOTION_DDOT": 0}, "tle": {"line1": "1 66699U 25276AK  25352.14784013  .00007597  00000+0  38427-3 0  9997", "line2": "2 66699  97.4420  63.8131 0003071 281.0974  78.9914 15.17309221  2942"}}, "geometry": {"type": "Point", "coordinates": [64.99922633156048, 3.8108364501503176]}}, {"type": "Feature", "properties": {"norad_id": 66700, "name": "TRANSPORTER-15 AL", "group": "last-30-days", "lat": 65.45994780538938, "lon": 48.88964915943339, "alt_km": 505.22107371441507, "timestamp": "2025-12-19T20:42:58.812381+00:00", "meta": {"OBJECT_NAME": "TRANSPORTER-15 AL", "OBJECT_ID": "2025-276AL", "EPOCH": "2025-12-19T04:36:19.895616", "MEAN_MOTION": 15.18157434, "ECCENTRICITY": 0.00013367, "INCLINATION": 97.4435, "RA_OF_ASC_NODE": 64.869, "ARG_OF_PERICENTER": 171.2417, "MEAN_ANOMALY": 188.884, "EPHEMERIS_TYPE": 0, "CLASSIFICATION_TYPE": "U", "NORAD_CAT_ID": 66700, "ELEMENT_SET_NO": 999, "REV_AT_EPOCH": 310, "BSTAR": 0.00031613033, "MEAN_MOTION_DOT": 6.391e-05, "MEAN_MOTION_DDOT": 0}, "tle": {"line1": "1 66700U 25276AL  25353.19189694  .00006391  00000+0  31613-3 0  9991", "line2": "2 66700  97.4435  64.8690 0001336 171.2417 188.8840 15.18157434  3102"}}, "geometry": {"type": "Point", "coordinates": [48.88964915943339, 65.45994780538938]}}, {"type": "Feature", "properties": {"norad_id": 66701, "name": "TRANSPORTER-15 AM", "group": "last-30-days", "lat": 3.6829514829864083, "lon": 65.0210962814756, "alt_km": 516.4932050813732, "timestamp": "2025-12-19T20:42:58.812392+00:00", "meta": {"OBJECT_NAME": "TRANSPORTER-15 AM", "OBJECT_ID": "2025-276AM", "EPOCH": "2025-12-18T03:32:54.456864", "MEAN_MOTION": 15.17299423, "ECCENTRICITY": 0.00030748, "INCLINATION": 97.444, "RA_OF_ASC_NODE": 63.8179, "ARG_OF_PERICENTER": 280.5231, "MEAN_ANOMALY": 79.5656, "EPHEMERIS_TYPE": 0, "CLASSIFICATION_TYPE": "U", "NORAD_CAT_ID": 66701, "ELEMENT_SET_NO": 999, "REV_AT_EPOCH": 294, "BSTAR": 0.00037892619, "MEAN_MOTION_DOT": 7.488e-05, "MEAN_MOTION_DDOT": 0}, "tle": {"line1": "1 66701U 25276AM  25352.14785251  .00007488  00000+0  37893-3 0  9991", "line2": "2 66701  97.4440  63.8179 0003074 280.5231  79.5656 15.17299423  2945"}}, "geometry": {"type": "Point", "coordinates": [65.0210962814756, 3.6829514829864083]}}]}